IXPE                    
1 49954U 21121A   24096.58334491  .00006619  00000+0  48888-3 0  9996
2 49954   0.2286 211.8567 0009164 282.0652 337.3172 14.97143042  5596
